{
  "type": "FeatureCollection",
  "features": [
    {
      "type": "Feature",
      "properties": {
        "norad_id": 43260,
        "name": "GAOFEN-1 03",
        "group": "resource",
        "lat": -22.854956480231294,
        "lon": -140.3133262812512,
        "alt_km": 646.902111854436,
        "timestamp": "2025-12-11T10:53:15.542567+00:00",
        "meta_object_name": "GAOFEN-1 03",
        "meta_object_id": "2018-031B",
        "meta_epoch": "2025-12-11T05:05:28.995360",
        "meta_mean_motion": 14.76431473,
        "meta_eccentricity": 0.0002085,
        "meta_inclination": 98.0801,
        "meta_ra_of_asc_node": 42.8779,
        "meta_arg_of_pericenter": 329.1905,
        "meta_mean_anomaly": 30.9182,
        "meta_ephemeris_type": 0,
        "meta_classification_type": "U",
        "meta_norad_cat_id": 43260,
        "meta_element_set_no": 999,
        "meta_rev_at_epoch": 41495,
        "meta_bstar": 0.00021074,
        "meta_mean_motion_dot": 1.414e-05,
        "meta_mean_motion_ddot": 0,
        "tle_line1": "1 43260U 18031B   25345.21214115  .00001414  00000+0  21074-3 0  9990",
        "tle_line2": "2 43260  98.0801  42.8779 0002085 329.1905  30.9182 14.76431473414950"
      },
      "geometry": {
        "type": "Point",
        "coordinates": [
          -140.3133262812512,
          -22.854956480231294
        ]
      }
    },
    {
      "type": "Feature",
      "properties": {
        "norad_id": 43262,
        "name": "GAOFEN-1 04",
        "group": "resource",
        "lat": -27.513443908426506,
        "lon": 47.53167616052608,
        "alt_km": 646.2784513057659,
        "timestamp": "2025-12-11T10:53:15.542577+00:00",
        "meta_object_name": "GAOFEN-1 04",
        "meta_object_id": "2018-031D",
        "meta_epoch": "2025-12-11T04:30:26.294112",
        "meta_mean_motion": 14.76443362,
        "meta_eccentricity": 0.000109,
        "meta_inclination": 98.0804,
        "meta_ra_of_asc_node": 43.0221,
        "meta_arg_of_pericenter": 56.2311,
        "meta_mean_anomaly": 303.9002,
        "meta_ephemeris_type": 0,
        "meta_classification_type": "U",
        "meta_norad_cat_id": 43262,
        "meta_element_set_no": 999,
        "meta_rev_at_epoch": 41494,
        "meta_bstar": 0.00018152,
        "meta_mean_motion_dot": 1.211e-05,
        "meta_mean_motion_ddot": 0,
        "tle_line1": "1 43262U 18031D   25345.18780433  .00001211  00000+0  18152-3 0  9997",
        "tle_line2": "2 43262  98.0804  43.0221 0001090  56.2311 303.9002 14.76443362414947"
      },
      "geometry": {
        "type": "Point",
        "coordinates": [
          47.53167616052608,
          -27.513443908426506
        ]
      }
    },
    {
      "type": "Feature",
      "properties": {
        "norad_id": 43437,
        "name": "SENTINEL-3B",
        "group": "resource",
        "lat": 8.518084589269042,
        "lon": 49.354341651240105,
        "alt_km": 804.4901858489729,
        "timestamp": "2025-12-11T10:53:15.542589+00:00",
        "meta_object_name": "SENTINEL-3B",
        "meta_object_id": "2018-039A",
        "meta_epoch": "2025-12-11T04:06:53.766432",
        "meta_mean_motion": 14.26741926,
        "meta_eccentricity": 0.0001555,
        "meta_inclination": 98.6269,
        "meta_ra_of_asc_node": 50.3791,
        "meta_arg_of_pericenter": 104.5822,
        "meta_mean_anomaly": 255.5531,
        "meta_ephemeris_type": 0,
        "meta_classification_type": "U",
        "meta_norad_cat_id": 43437,
        "meta_element_set_no": 999,
        "meta_rev_at_epoch": 39731,
        "meta_bstar": 0.00011128,
        "meta_mean_motion_dot": 2.26e-06,
        "meta_mean_motion_ddot": 0,
        "tle_line1": "1 43437U 18039A   25345.17145563  .00000226  00000+0  11128-3 0  9998",
        "tle_line2": "2 43437  98.6269  50.3791 0001555 104.5822 255.5531 14.26741926397317"
      },
      "geometry": {
        "type": "Point",
        "coordinates": [
          49.354341651240105,
          8.518084589269042
        ]
      }
    },
    {
      "type": "Feature",
      "properties": {
        "norad_id": 43461,
        "name": "GAOFEN-5 01",
        "group": "resource",
        "lat": -22.013087798447184,
        "lon": 124.96003458913314,
        "alt_km": 697.8251311069762,
        "timestamp": "2025-12-11T10:53:15.542599+00:00",
        "meta_object_name": "GAOFEN-5 01",
        "meta_object_id": "2018-043A",
        "meta_epoch": "2025-12-10T15:52:37.152768",
        "meta_mean_motion": 14.6040665,
        "meta_eccentricity": 0.00010926,
        "meta_inclination": 98.4324,
        "meta_ra_of_asc_node": 307.5925,
        "meta_arg_of_pericenter": 348.2801,
        "meta_mean_anomaly": 11.8373,
        "meta_ephemeris_type": 0,
        "meta_classification_type": "U",
        "meta_norad_cat_id": 43461,
        "meta_element_set_no": 999,
        "meta_rev_at_epoch": 40417,
        "meta_bstar": 0.00018403532,
        "meta_mean_motion_dot": 8.42e-06,
        "meta_mean_motion_ddot": 0,
        "tle_line1": "1 43461U 18043A   25344.66154112  .00000842  00000+0  18404-3 0  9991",
        "tle_line2": "2 43461  98.4324 307.5925 0001092 348.2801  11.8373 14.60406650404170"
      },
      "geometry": {
        "type": "Point",
        "coordinates": [
          124.96003458913314,
          -22.013087798447184
        ]
      }
    },
    {
      "type": "Feature",
      "properties": {
        "norad_id": 43484,
        "name": "GAOFEN-6",
        "group": "resource",
        "lat": 56.018726816843916,
        "lon": -118.49832185897091,
        "alt_km": 629.6064241591775,
        "timestamp": "2025-12-11T10:53:15.542610+00:00",
        "meta_object_name": "GAOFEN-6",
        "meta_object_id": "2018-048A",
        "meta_epoch": "2025-12-11T05:27:14.512320",
        "meta_mean_motion": 14.76562589,
        "meta_eccentricity": 0.0013253,
        "meta_inclination": 97.8029,
        "meta_ra_of_asc_node": 49.5446,
        "meta_arg_of_pericenter": 68.1326,
        "meta_mean_anomaly": 292.1292,
        "meta_ephemeris_type": 0,
        "meta_classification_type": "U",
        "meta_norad_cat_id": 43484,
        "meta_element_set_no": 999,
        "meta_rev_at_epoch": 40565,
        "meta_bstar": 0.00022657,
        "meta_mean_motion_dot": 1.533e-05,
        "meta_mean_motion_ddot": 0,
        "tle_line1": "1 43484U 18048A   25345.22725130  .00001533  00000+0  22657-3 0  9991",
        "tle_line2": "2 43484  97.8029  49.5446 0013253  68.1326 292.1292 14.76562589405652"
      },
      "geometry": {
        "type": "Point",
        "coordinates": [
          -118.49832185897091,
          56.018726816843916
        ]
      }
    },
    {
      "type": "Feature",
      "properties": {
        "norad_id": 43585,
        "name": "GAOFEN-11 01",
        "group": "resource",
        "lat": -45.759425890569666,
        "lon": 55.81029243107791,
        "alt_km": 423.0254108381505,
        "timestamp": "2025-12-11T10:53:15.542621+00:00",
        "meta_object_name": "GAOFEN-11 01",
        "meta_object_id": "2018-063A",
        "meta_epoch": "2025-12-11T04:53:08.479104",
        "meta_mean_motion": 15.4915405,
        "meta_eccentricity": 0.0004392,
        "meta_inclination": 97.1555,
        "meta_ra_of_asc_node": 48.1502,
        "meta_arg_of_pericenter": 320.8293,
        "meta_mean_anomaly": 39.2641,
        "meta_ephemeris_type": 0,
        "meta_classification_type": "U",
        "meta_norad_cat_id": 43585,
        "meta_element_set_no": 999,
        "meta_rev_at_epoch": 41118,
        "meta_bstar": 0.00051025,
        "meta_mean_motion_dot": 0.00027735,
        "meta_mean_motion_ddot": 0,
        "tle_line1": "1 43585U 18063A   25345.20357036  .00027735  00000+0  51025-3 0  9997",
        "tle_line2": "2 43585  97.1555  48.1502 0004392 320.8293  39.2641 15.49154050411188"
      },
      "geometry": {
        "type": "Point",
        "coordinates": [
          55.81029243107791,
          -45.759425890569666
        ]
      }
    },
    {
      "type": "Feature",
      "properties": {
        "norad_id": 43613,
        "name": "ICESAT-2",
        "group": "resource",
        "lat": 33.039309326247874,
        "lon": 61.69536724424415,
        "alt_km": 477.17598817762973,
        "timestamp": "2025-12-11T10:53:15.542631+00:00",
        "meta_object_name": "ICESAT-2",
        "meta_object_id": "2018-070A",
        "meta_epoch": "2025-12-11T03:57:41.576256",
        "meta_mean_motion": 15.28329689,
        "meta_eccentricity": 0.0002582,
        "meta_inclination": 92.0043,
        "meta_ra_of_asc_node": 240.3124,
        "meta_arg_of_pericenter": 152.868,
        "meta_mean_anomaly": 207.2705,
        "meta_ephemeris_type": 0,
        "meta_classification_type": "U",
        "meta_norad_cat_id": 43613,
        "meta_element_set_no": 999,
        "meta_rev_at_epoch": 40374,
        "meta_bstar": 0.00068967,
        "meta_mean_motion_dot": 0.00019042,
        "meta_mean_motion_ddot": 0,
        "tle_line1": "1 43613U 18070A   25345.16506454  .00019042  00000+0  68967-3 0  9997",
        "tle_line2": "2 43613  92.0043 240.3124 0002582 152.8680 207.2705 15.28329689403744"
      },
      "geometry": {
        "type": "Point",
        "coordinates": [
          61.69536724424415,
          33.039309326247874
        ]
      }
    }
  ]
}